GAOFEN-14 02            
1 66175U 25242A   25318.46556247  .00014152  00000+0  52318-3 0  9992
2 66175  97.4386  30.6022 0011017 193.9078 166.1859 15.27766001  2951
CZ-3B R/B               
1 66176U 25242B   25309.65934494  .00029904  00000+0  58815-3 0  9997
2 66176  97.4571  21.8726 0103778   5.1082 355.1197 15.41457457  1622
STARLINK-35352          
1 66177U 25243A   25323.91668981 -.00535239  00000+0 -10173-1 0  9997
2 66177  53.1599  35.9112 0000616  69.1437  20.0767 15.49636072  4914
STARLINK-35363          
1 66178U 25243B   25323.91668981 -.00527560  00000+0 -10020-1 0  9997
2 66178  53.1598  35.9185 0000805  66.7772  18.6181 15.49626532  4978
STARLINK-35346          
1 66179U 25243C   25323.91668981 -.00534183  00000+0 -10153-1 0  9994
2 66179  53.1596  35.9225 0000805  69.4818  13.9931 15.49632238  4918
STARLINK-35335          
1 66180U 25243D   25323.91668981 -.00534168  00000+0 -10153-1 0  9999
2 66180  53.1597  35.9272 0000807  71.2926  10.2678 15.49630621  4918
STARLINK-35342          
1 66181U 25243E   25323.91668981 -.00538327  00000+0 -10236-1 0  9993
2 66181  53.1596  35.9314 0000636  78.4745   1.1637 15.49636696  4915
STARLINK-35333          
1 66182U 25243F   25323.91668981 -.00534977  00000+0 -10169-1 0  9996
2 66182  53.1596  35.9348 0000732  78.2926 359.4321 15.49632900  4866
STARLINK-35310          
1 66183U 25243G   25323.91668981 -.00534121  00000+0 -10153-1 0  9991
2 66183  53.1597  35.9397 0000869  74.4145   1.3980 15.49629059  4971
STARLINK-35317          
1 66184U 25243H   25323.91668981 -.00540295  00000+0 -10276-1 0  9997
2 66184  53.1594  35.9799 0000874  70.8523 345.7887 15.49634922  4911
STARLINK-35377          
1 66185U 25243J   25323.91668981 -.00541814  00000+0 -10307-1 0  9991
2 66185  53.1596  35.9878 0000851  76.6666 336.1412 15.49635560  4972
STARLINK-35365          
1 66186U 25243K   25323.91668981 -.00543460  00000+0 -10340-1 0  9998
2 66186  53.1597  35.9962 0000857  70.8761 338.0978 15.49636562  4911
